IRIDIUM 155             
1 43573U 18061E   21238.59562591  .00000004  00000-0 -56593-5 0  9994
2 43573  86.3921  70.3870 0001883  74.6029 285.5374 14.34216983161728
IRIDIUM 154             
1 43574U 18061F   21238.78590035 -.00000001  00000-0 -74266-5 0  9995
2 43574  86.3924  70.3572 0002249  92.1578 267.9875 14.34217168161807
IRIDIUM 163             
1 43575U 18061G   21238.76686511  .00000002  00000-0 -63787-5 0  9995
2 43575  86.3921  70.3339 0001791 102.2988 257.8409 14.34218198161776
IRIDIUM 156             
1 43576U 18061H   21238.60196470 -.00000002  00000-0 -77795-5 0  9994
2 43576  86.3922  70.4081 0001671  88.5018 271.6370 14.34218496161749
IRIDIUM 164             
1 43577U 18061J   21238.79224027  .00000002  00000-0 -64639-5 0  9997
2 43577  86.3923  70.3421 0002138  94.5071 265.6369 14.34216947161811
IRIDIUM 159             
1 43578U 18061K   21238.62100974  .00000003  00000-0 -61566-5 0  9991
2 43578  86.3921  70.3875 0002172  91.8123 268.3322 14.34216832161754
IRIDIUM 180             
1 43922U 19002A   21238.62050864  .00000090  00000-0  24949-4 0  9990
2 43922  86.4013   7.2444 0002845 109.5288 250.6216 14.34217990137369
IRIDIUM 176             
1 43923U 19002B   21238.62107417  .00000198  00000-0  27443-4 0  9999
2 43923  86.6145   7.2773 0002417  92.0212 268.1282 14.72246501140959
IRIDIUM 168             
1 43924U 19002C   21238.61415657  .00000085  00000-0  23134-4 0  9995
2 43924  86.4015   7.2747 0002449  96.6028 263.5447 14.34216860137349
IRIDIUM 173             
1 43925U 19002D   21238.60147385  .00000084  00000-0  23042-4 0  9992
2 43925  86.4012   7.2404 0002330  97.5006 262.6455 14.34216740137326
IRIDIUM 169             
1 43926U 19002E   21238.73410981  .00000050  00000-0  96970-5 0  9996
2 43926  86.4225  38.7699 0005391  25.2914 334.8547 14.38608561137845
IRIDIUM 172             
1 43927U 19002F   21238.59513458  .00000093  00000-0  25991-4 0  9995
2 43927  86.4012   7.2456 0002409  98.9650 261.1819 14.34218076137335
IRIDIUM 175             
1 43928U 19002G   21238.61491273  .00000196  00000-0  27157-4 0  9999
2 43928  86.6148   7.1019 0002301 106.2850 253.8621 14.72250518140947
IRIDIUM 171             
1 43929U 19002H   21238.64587629  .00000086  00000-0  23505-4 0  9995
2 43929  86.4022   7.3357 0002448  96.2144 263.9331 14.34216551137336
IRIDIUM 170             
1 43930U 19002J   21238.62730216  .00000190  00000-0  26241-4 0  9993
2 43930  86.6145   7.2809 0002546  95.9716 264.1792 14.72250094140966
IRIDIUM 167             
1 43931U 19002K   21238.63952119  .00000088  00000-0  24365-4 0  9994
2 43931  86.4013   7.2340 0002743 104.9957 255.1542 14.34218826137331
IRIDIUM 7 [-]           
1 24793U 97020B   21238.70521375  .00000092  00000-0  25552-4 0  9993
2 24793  86.3960  38.7986 0002175  87.4191 272.7254 14.34395575272494
IRIDIUM 5 [-]           
1 24795U 97020D   21238.66089702  .00000321  00000-0  31844-4 0  9999
2 24795  86.4015 354.8117 0138781  20.7153 339.9615 14.80604654279077
IRIDIUM 4 [-]           
1 24796U 97020E   21238.73194820  .00000089  00000-0  24266-4 0  9997
2 24796  86.3959  36.5873 0002349  92.4361 267.7104 14.35299238272942
IRIDIUM 914 [-]         
1 24836U 97030A   21238.72785184  .00000098  00000-0  25224-4 0  9996
2 24836  86.3916  49.1684 0003868 103.0767 257.0863 14.39002775407076
IRIDIUM 16 [-]          
1 24841U 97030F   21238.61415572  .00000094  00000-0  25093-4 0  9991
2 24841  86.3993  68.5456 0001582  11.3797 348.7436 14.36955894267225
IRIDIUM 911 [-]         
1 24842U 97030G   21238.76955881  .00000116  00000-0  27171-4 0  9994
2 24842  86.4421  68.3430 0016037  49.4809 310.7787 14.45253051274143
IRIDIUM 17 [-]          
1 24870U 97034B   21238.69178322  .00000090  00000-0  24086-4 0  9991
2 24870  86.3925  98.3703 0000824 143.1981 216.9272 14.36011975263947
IRIDIUM 920 [-]         
1 24871U 97034C   21238.63515936  .00000089  00000-0  21986-4 0  9996
2 24871  86.3924  80.8957 0011289 352.7895   7.3140 14.39722667266414
IRIDIUM 921 [-]         
1 24873U 97034E   21238.78590049  .00001547  00000-0  84238-4 0  9991
2 24873  86.3887  60.7803 0009590 115.0535 245.1701 15.13578009319308
IRIDIUM 26 [-]          
1 24903U 97043A   21238.67871761  .00000109  00000-0  31150-4 0  9994
2 24903  86.4004 333.5414 0002205  88.0480 272.0969 14.35470142257181
IRIDIUM 22 [-]          
1 24907U 97043E   21238.66004414  .00000105  00000-0  30281-4 0  9990
2 24907  86.4009 335.9999 0002298  94.1178 266.0280 14.34403798257369
DUMMY MASS 1 [-]        
1 24925U 97048A   21238.75849055  .00000076  00000-0  55379-5 0  9996
2 24925  86.3317  57.1850 0008392  42.2610 317.9259 14.85273951298667
DUMMY MASS 2 [-]        
1 24926U 97048B   21238.76697557  .00000083  00000-0  64277-5 0  9991
2 24926  86.3316  58.5504 0009473  49.0390 311.1652 14.85041112298473
IRIDIUM 29 [-]          
1 24944U 97051A   21238.63189425  .00000109  00000-0  31599-4 0  9990
2 24944  86.4004   6.2692 0002434  96.5740 263.5733 14.34821838253793
IRIDIUM 33 [-]          
1 24946U 97051C   21238.64860646  .00000102  00000-0  29710-4 0  9999
2 24946  86.3919   5.7031 0005916 300.9146  59.1467 14.33745350253448
IRIDIUM 28 [-]          
1 24948U 97051E   21238.60712105  .00000093  00000-0  25376-4 0  9996
2 24948  86.4010   4.5989 0001945  85.2360 274.9059 14.35773229254231
IRIDIUM 36 [-]          
1 24967U 97056C   21238.68707232  .00000104  00000-0  28965-4 0  9995
2 24967  86.3971  36.2258 0002070  97.8388 262.3044 14.35846252252608
IRIDIUM 39 [-]          
1 25042U 97069D   21238.63667958  .00000142  00000-0  33731-4 0  9998
2 25042  86.3875  85.7289 0016836 258.6901 101.2409 14.46484737247813
IRIDIUM 38 [-]          
1 25043U 97069E   21238.66788058  .00000114  00000-0  32143-4 0  9992
2 25043  86.3923  97.0412 0001748  45.3672 314.7667 14.36274026246277
IRIDIUM 42 [-]          
1 25077U 97077A   21238.65336763  .00000071  00000-0  18142-4 0  9994
2 25077  86.3933 101.5602 0001976  70.6424 289.4985 14.34658935241747
IRIDIUM 44 [-]          
1 25078U 97077B   21238.65147046  .00000092  00000-0  23574-4 0  9997
2 25078  86.3913  87.1783 0000308  32.7291 327.3926 14.38381330243727
IRIDIUM 45 [-]          
1 25104U 97082A   21238.66822301  .00000715  00000-0  53513-4 0  9996
2 25104  86.3848 334.5021 0209086 305.3405  52.8430 14.85213214244018
IRIDIUM 24 [-]          
1 25105U 97082B   21238.65856891  .00000083  00000-0  19978-4 0  9992
2 25105  86.3920 308.5176 0011042 354.2714   5.8356 14.40102947242992
IRIDIUM 51 [-]          
1 25262U 98018A   21238.67908119  .00000888  00000-0  60472-4 0  9997
2 25262  86.4029 346.4225 0199434 284.5196  73.3982 14.90063847237959
IRIDIUM 57 [-]          
1 25273U 98019B   21238.64132739  .00000092  00000-0  25506-4 0  9990
2 25273  86.4007   7.1397 0002240  94.3411 265.8040 14.34446909225371
IRIDIUM 63 [-]          
1 25286U 98021B   21238.66132059  .00000098  00000-0  27669-4 0  9992
2 25286  86.3986 304.0953 0002480  94.4747 265.6732 14.34894816224364
IRIDIUM 69 [-]          
1 25319U 98026A   21238.66467091  .00000127  00000-0  34808-4 0  9997
2 25319  86.4015 321.3575 0000291  27.7079 332.4135 14.38931230223008
IRIDIUM 71 [-]          
1 25320U 98026B   21238.64153567  .00000103  00000-0  26873-4 0  9994
2 25320  86.3990 316.5278 0002664  43.1407 317.0000 14.39322884223482
IRIDIUM 73 [-]          
1 25344U 98032C   21238.64506255  .00000105  00000-0  22134-4 0  9991
2 25344  86.4385 275.5431 0002218  75.0583 285.0866 14.49311431229348
IRIDIUM 82 [-]          
1 25467U 98051A   21238.71497920  .00000689  00000-0  48324-4 0  9990
2 25467  86.3988  40.7028 0174992 324.9287  34.0515 14.91668704214951
IRIDIUM 2 [-]           
1 25527U 98066A   21238.42527971  .00001817  00000-0  83203-4 0  9990
2 25527  85.5308 206.1718 0007479 193.7463 166.3577 15.19741461250660
MTI                     
1 26102U 00014A   21238.71600588  .00012570  00000-0  14158-3 0  9994
2 26102  97.4597 149.0637 0008175  60.9700 299.2377 15.62663294192316
CFESAT                  
1 30777U 07006F   21238.53068560  .00006913  00000-0  16621-3 0  9994
2 30777  35.4247  48.1496 0004324 205.5904 154.4610 15.40647362803506
SPIRALE A               
1 33751U 09008C   21238.49476846  .00000091  00000-0  64763-3 0  9999
2 33751   1.9811 170.7117 5391688  55.6930 344.1555  4.58798449181266
SPIRALE B               
1 33752U 09008D   21238.38200951  .00004760  00000-0  92631-3 0  9992
2 33752   1.9396 284.5137 6889709 185.3542 158.3551  2.79271742116800
SAPPHIRE                
1 39088U 13009C   21238.53222369 -.00000002  00000-0  14610-4 0  9998
2 39088  98.4436  76.4389 0012563  74.9641 285.2933 14.34249944444849
MOLNIYA 2-9             
1 07276U 74026A   21235.96731116  .00000010  00000-0  00000-0 0  9999
2 07276  64.2348 270.5697 6634371 284.6177  14.8113  2.45096487241923
MOLNIYA 2-10            
1 07376U 74056A   21238.07229989 -.00000734  00000-0  00000-0 0  9992
2 07376  63.7594 124.8818 6673542 289.1183  13.2448  2.01096475344418
MOLNIYA 1-S             
1 07392U 74060A   21238.63125608 -.00000267  00000-0  00000-0 0  9991
2 07392   5.8523 287.3449 0011142 200.6967 166.2309  1.00333836116576
MOLNIYA 1-29            
1 07780U 75036A   21238.07759703 -.00000101  00000-0 -12963-1 0  9993
2 07780  63.3051 250.5267 7121939 289.6155  10.4367  2.00611203339693
MOLNIYA 2-14            
1 08195U 75081A   21238.24936393  .00000565  00000-0  00000-0 0  9995
2 08195  63.3432 221.3920 7000907 294.0297  10.0452  2.02053027336927
MOLNIYA 1-32            
1 08601U 76006A   21234.56555696  .00000256  00000-0 -10294-3 0  9996
2 08601  63.2479 341.7035 7385930 282.5345  10.7553  2.00092349 46689
MOLNIYA 1-36            
1 09880U 77021A   21238.13980753 -.00001635  00000-0  13229-2 0  9999
2 09880  63.1404 310.9420 7366421 288.5237   9.5459  2.00604083223448
